{"type": "FeatureCollection", "features": [ {"type": "Feature", "properties": {"norad_id": 43565, "name": "GSAT0222 (GALILEO 26)", "group": "gnss", "lat": 22.722514213861448, "lon": 150.98015330073673, "alt_km": 23226.32044970365, "timestamp": "2025-12-19T10:50:01.443807+00:00", "meta": {"OBJECT_NAME": "GSAT0222 (GALILEO 26)", "OBJECT_ID": "2018-060B", "EPOCH": "2025-12-18T00:42:17.845344", "MEAN_MOTION": 1.70475645, "ECCENTRICITY": 0.00060883, "INCLINATION": 57.23, "RA_OF_ASC_NODE": 346.6777, "ARG_OF_PERICENTER": 265.4214, "MEAN_ANOMALY": 94.5238, "EPHEMERIS_TYPE": 0, "CLASSIFICATION_TYPE": "U", "NORAD_CAT_ID": 43565, "ELEMENT_SET_NO": 999, "REV_AT_EPOCH": 4612, "BSTAR": 0, "MEAN_MOTION_DOT": -7.6e-07, "MEAN_MOTION_DDOT": 0}, "tle": {"line1": "1 43565U 18060B   25352.02937321 -.00000076  00000+0  00000+0 0  9994", "line2": "2 43565  57.2300 346.6777 0006088 265.4214  94.5238  1.70475645 46121"}}, "geometry": {"type": "Point", "coordinates": [150.98015330073673, 22.722514213861448]}}, {"type": "Feature", "properties": {"norad_id": 43566, "name": "GSAT0219 (GALILEO 23)", "group": "gnss", "lat": 14.246387206266972, "lon": -3.9512975336363767, "alt_km": 23219.53730120725, "timestamp": "2025-12-19T10:50:01.443819+00:00", "meta": {"OBJECT_NAME": "GSAT0219 (GALILEO 23)", "OBJECT_ID": "2018-060C", "EPOCH": "2025-12-18T06:00:44.208288", "MEAN_MOTION": 1.70475856, "ECCENTRICITY": 0.00058664, "INCLINATION": 57.2293, "RA_OF_ASC_NODE": 346.6733, "ARG_OF_PERICENTER": 289.9096, "MEAN_ANOMALY": 70.0415, "EPHEMERIS_TYPE": 0, "CLASSIFICATION_TYPE": "U", "NORAD_CAT_ID": 43566, "ELEMENT_SET_NO": 999, "REV_AT_EPOCH": 4610, "BSTAR": 0, "MEAN_MOTION_DOT": -7.6e-07, "MEAN_MOTION_DDOT": 0}, "tle": {"line1": "1 43566U 18060C   25352.25051167 -.00000076  00000+0  00000+0 0  9995", "line2": "2 43566  57.2293 346.6733 0005866 289.9096  70.0415  1.70475856 46105"}}, "geometry": {"type": "Point", "coordinates": [-3.9512975336363767, 14.246387206266972]}}, {"type": "Feature", "properties": {"norad_id": 43567, "name": "GSAT0220 (GALILEO 24)", "group": "gnss", "lat": -47.53718836892194, "lon": -148.61478291920275, "alt_km": 23214.596746280924, "timestamp": "2025-12-19T10:50:01.443830+00:00", "meta": {"OBJECT_NAME": "GSAT0220 (GALILEO 24)", "OBJECT_ID": "2018-060D", "EPOCH": "2025-12-17T07:09:30.654144", "MEAN_MOTION": 1.70475982, "ECCENTRICITY": 0.00060597, "INCLINATION": 57.2291, "RA_OF_ASC_NODE": 346.699, "ARG_OF_PERICENTER": 286.0855, "MEAN_ANOMALY": 73.8638, "EPHEMERIS_TYPE": 0, "CLASSIFICATION_TYPE": "U", "NORAD_CAT_ID": 43567, "ELEMENT_SET_NO": 999, "REV_AT_EPOCH": 4607, "BSTAR": 0, "MEAN_MOTION_DOT": -7.8e-07, "MEAN_MOTION_DDOT": 0}, "tle": {"line1": "1 43567U 18060D   25351.29827146 -.00000078  00000+0  00000+0 0  9999", "line2": "2 43567  57.2291 346.6990 0006059 286.0855  73.8638  1.70475982 46079"}}, "geometry": {"type": "Point", "coordinates": [-148.61478291920275, -47.53718836892194]}}, {"type": "Feature", "properties": {"norad_id": 43581, "name": "BEIDOU-3 M5 (C23)", "group": "gnss", "lat": 23.472491837994294, "lon": -9.930563991574044, "alt_km": 21530.565161092432, "timestamp": "2025-12-19T10:50:01.443841+00:00", "meta": {"OBJECT_NAME": "BEIDOU-3 M5 (C23)", "OBJECT_ID": "2018-062A", "EPOCH": "2025-12-17T01:53:59.361792", "MEAN_MOTION": 1.86228923, "ECCENTRICITY": 0.00020674, "INCLINATION": 54.0895, "RA_OF_ASC_NODE": 188.4955, "ARG_OF_PERICENTER": 356.8892, "MEAN_ANOMALY": 3.1782, "EPHEMERIS_TYPE": 0, "CLASSIFICATION_TYPE": "U", "NORAD_CAT_ID": 43581, "ELEMENT_SET_NO": 999, "REV_AT_EPOCH": 5024, "BSTAR": 0, "MEAN_MOTION_DOT": 1.14e-06, "MEAN_MOTION_DDOT": 0}, "tle": {"line1": "1 43581U 18062A   25351.07915928  .00000114  00000+0  00000+0 0  9999", "line2": "2 43581  54.0895 188.4955 0002067 356.8892   3.1782  1.86228923 50243"}}, "geometry": {"type": "Point", "coordinates": [-9.930563991574044, 23.472491837994294]}}, {"type": "Feature", "properties": {"norad_id": 43582, "name": "BEIDOU-3 M6 (C24)", "group": "gnss", "lat": -45.833889162174444, "lon": 56.69624532108221, "alt_km": 21554.486388064674, "timestamp": "2025-12-19T10:50:01.443855+00:00", "meta": {"OBJECT_NAME": "BEIDOU-3 M6 (C24)", "OBJECT_ID": "2018-062B", "EPOCH": "2025-12-18T13:16:24.586176", "MEAN_MOTION": 1.86230003, "ECCENTRICITY": 0.00078192, "INCLINATION": 54.0893, "RA_OF_ASC_NODE": 188.4345, "ARG_OF_PERICENTER": 47.611, "MEAN_ANOMALY": 312.5201, "EPHEMERIS_TYPE": 0, "CLASSIFICATION_TYPE": "U", "NORAD_CAT_ID": 43582, "ELEMENT_SET_NO": 999, "REV_AT_EPOCH": 5027, "BSTAR": 0, "MEAN_MOTION_DOT": 1.07e-06, "MEAN_MOTION_DDOT": 0}, "tle": {"line1": "1 43582U 18062B   25352.55306234  .00000107  00000+0  00000+0 0  9990", "line2": "2 43582  54.0893 188.4345 0007819  47.6110 312.5201  1.86230003 50271"}}, "geometry": {"type": "Point", "coordinates": [56.69624532108221, -45.833889162174444]}}, {"type": "Feature", "properties": {"norad_id": 43602, "name": "BEIDOU-3 M12 (C26)", "group": "gnss", "lat": -51.88028121087449, "lon": 120.08586357040537, "alt_km": 21545.7622030591, "timestamp": "2025-12-19T10:50:01.443866+00:00", "meta": {"OBJECT_NAME": "BEIDOU-3 M12 (C26)", "OBJECT_ID": "2018-067A", "EPOCH": "2025-12-17T22:53:45.555072", "MEAN_MOTION": 1.86227791, "ECCENTRICITY": 0.00092249, "INCLINATION": 54.1833, "RA_OF_ASC_NODE": 187.186, "ARG_OF_PERICENTER": 41.0055, "MEAN_ANOMALY": 319.1284, "EPHEMERIS_TYPE": 0, "CLASSIFICATION_TYPE": "U", "NORAD_CAT_ID": 43602, "ELEMENT_SET_NO": 999, "REV_AT_EPOCH": 4974, "BSTAR": 0, "MEAN_MOTION_DOT": 1.1e-06, "MEAN_MOTION_DDOT": 0}, "tle": {"line1": "1 43602U 18067A   25351.95399948  .00000110  00000+0  00000+0 0  9999", "line2": "2 43602  54.1833 187.1860 0009224  41.0055 319.1284  1.86227791 49749"}}, "geometry": {"type": "Point", "coordinates": [120.08586357040537, -51.88028121087449]}}, {"type": "Feature", "properties": {"norad_id": 43603, "name": "BEIDOU-3 M11 (C25)", "group": "gnss", "lat": -11.189131384794, "lon": 15.323158634858151, "alt_km": 21544.514999706298, "timestamp": "2025-12-19T10:50:01.443879+00:00", "meta": {"OBJECT_NAME": "BEIDOU-3 M11 (C25)", "OBJECT_ID": "2018-067B", "EPOCH": "2025-12-18T02:07:28.250688", "MEAN_MOTION": 1.86227303, "ECCENTRICITY": 0.00056103, "INCLINATION": 54.1805, "RA_OF_ASC_NODE": 187.1455, "ARG_OF_PERICENTER": 36.7465, "MEAN_ANOMALY": 323.3559, "EPHEMERIS_TYPE": 0, "CLASSIFICATION_TYPE": "U", "NORAD_CAT_ID": 43603, "ELEMENT_SET_NO": 999, "REV_AT_EPOCH": 4977, "BSTAR": 0, "MEAN_MOTION_DOT": 1.09e-06, "MEAN_MOTION_DDOT": 0}, "tle": {"line1": "1 43603U 18067B   25352.08852142  .00000109  00000+0  00000+0 0  9993", "line2": "2 43603  54.1805 187.1455 0005610  36.7465 323.3559  1.86227303 49774"}}, "geometry": {"type": "Point", "coordinates": [15.323158634858151, -11.189131384794]}}, {"type": "Feature", "properties": {"norad_id": 43622, "name": "BEIDOU-3 M13 (C32)", "group": "gnss", "lat": -34.54354991755237, "lon": -84.26838173816374, "alt_km": 21528.32911087464, "timestamp": "2025-12-19T10:50:01.443891+00:00", "meta": {"OBJECT_NAME": "BEIDOU-3 M13 (C32)", "OBJECT_ID": "2018-072A", "EPOCH": "2025-12-18T01:04:45.720768", "MEAN_MOTION": 1.86231064, "ECCENTRICITY": 0.00060078, "INCLINATION": 56.4641, "RA_OF_ASC_NODE": 68.6443, "ARG_OF_PERICENTER": 298.9487, "MEAN_ANOMALY": 61.0199, "EPHEMERIS_TYPE": 0, "CLASSIFICATION_TYPE": "U", "NORAD_CAT_ID": 43622, "ELEMENT_SET_NO": 999, "REV_AT_EPOCH": 4928, "BSTAR": 0, "MEAN_MOTION_DOT": -6.7e-07, "MEAN_MOTION_DDOT": 0}, "tle": {"line1": "1 43622U 18072A   25352.04497362 -.00000067  00000+0  00000+0 0  9999", "line2": "2 43622  56.4641  68.6443 0006007 298.9487  61.0199  1.86231064 49286"}}, "geometry": {"type": "Point", "coordinates": [-84.26838173816374, -34.54354991755237]}}, {"type": "Feature", "properties": {"norad_id": 43623, "name": "BEIDOU-3 M14 (C33)", "group": "gnss", "lat": -37.49966809227905, "lon": 38.07371188983813, "alt_km": 21523.6526280467, "timestamp": "2025-12-19T10:50:01.443916+00:00", "meta": {"OBJECT_NAME": "BEIDOU-3 M14 (C33)", "OBJECT_ID": "2018-072B", "EPOCH": "2025-12-18T10:44:15.262368", "MEAN_MOTION": 1.8623104, "ECCENTRICITY": 0.00033898, "INCLINATION": 56.4661, "RA_OF_ASC_NODE": 68.625, "ARG_OF_PERICENTER": 331.3053, "MEAN_ANOMALY": 28.7068, "EPHEMERIS_TYPE": 0, "CLASSIFICATION_TYPE": "U", "NORAD_CAT_ID": 43623, "ELEMENT_SET_NO": 999, "REV_AT_EPOCH": 4928, "BSTAR": 0, "MEAN_MOTION_DOT": -6.3e-07, "MEAN_MOTION_DDOT": 0}, "tle": {"line1": "1 43623U 18072B   25352.44739887 -.00000063  00000+0  00000+0 0  9991", "line2": "2 43623  56.4661  68.6250 0003389 331.3053  28.7068  1.86231040 49285"}}, "geometry": {"type": "Point", "coordinates": [38.07371188983813, -37.49966809227905]}}, {"type": "Feature", "properties": {"norad_id": 43647, "name": "BEIDOU-3 M16 (C35)", "group": "gnss", "lat": -21.971890713915307, "lon": 143.13800388864456, "alt_km": 21551.092541010312, "timestamp": "2025-12-19T10:50:01.443927+00:00", "meta": {"OBJECT_NAME": "BEIDOU-3 M16 (C35)", "OBJECT_ID": "2018-078A", "EPOCH": "2025-12-18T14:31:23.928384", "MEAN_MOTION": 1.86232416, "ECCENTRICITY": 0.00073312, "INCLINATION": 54.2565, "RA_OF_ASC_NODE": 306.3163, "ARG_OF_PERICENTER": 19.8035, "MEAN_ANOMALY": 340.2135, "EPHEMERIS_TYPE": 0, "CLASSIFICATION_TYPE": "U", "NORAD_CAT_ID": 43647, "ELEMENT_SET_NO": 999, "REV_AT_EPOCH": 4879, "BSTAR": 0, "MEAN_MOTION_DOT": -8.1e-07, "MEAN_MOTION_DDOT": 0}, "tle": {"line1": "1 43647U 18078A   25352.60513806 -.00000081  00000+0  00000+0 0  9992", "line2": "2 43647  54.2565 306.3163 0007331  19.8035 340.2135  1.86232416 48794"}}, "geometry": {"type": "Point", "coordinates": [143.13800388864456, -21.971890713915307]}}]}